AEROCUBE 8D             
1 41852U 16067E   25092.78593199  .00014857  00000+0  77090-3 0  9999
2 41852  98.1143 285.8065 0004125 196.1539 163.9562 15.16246926459156
AEROCUBE 8C             
1 41853U 16067F   25092.46699306  .00014957  00000+0  77370-3 0  9994
2 41853  98.0981 283.3871 0007123 135.3291 224.8515 15.16338780459093
PROMETHEUS 2-1          
1 41854U 16067G   25092.54385625  .00066161  00000+0  15805-2 0  9998
2 41854  98.0864 298.2506 0008032 135.8315 224.3572 15.41244113459908
PROMETHEUS 2-3          
1 41855U 16067H   25092.29267301  .00064885  00000+0  15549-2 0  9997
2 41855  98.0811 297.1910 0006976 146.2339 213.9351 15.41163124459861
CORVUS BC2              
1 42846U 17042X   25092.45404041  .00007205  00000+0  54978-3 0  9997
2 42846  97.3669 268.3658 0014055 170.7887 189.3599 15.02209469420803
CORVUS BC1              
1 42847U 17042Y   25092.44962664  .00007850  00000+0  59497-3 0  9994
2 42847  97.3699 268.8357 0012949 150.7652 209.4301 15.02447486420826
MIRATA                  
1 43015U 17073C   25092.59057590  .00101633  00000+0  22074-2 0  9999
2 43015  97.5491 344.8561 0097503 332.9986  26.6204 15.39017223400316
MAKERSAT 0              
1 43016U 17073D   25092.62124367  .00031951  00000+0  13496-2 0  9994
2 43016  97.5289 331.5368 0154397  15.9992 344.6036 15.12924638399445
SIRION PATHFINDER-2     
1 43759U 18099B   25092.70106455  .00010532  00000+0  67031-3 0  9991
2 43759  97.4849 147.2691 0010045  26.8711 333.3036 15.08921973346072
CORVUS BC4              
1 43767U 18099K   25092.66685727  .00008555  00000+0  56637-3 0  9991
2 43767  97.4675 143.3643 0010902  80.8412 279.4049 15.07521045345924
MOVE-II                 
1 43780U 18099Y   25092.69392711  .00144919  00000+0  23350-2 0  9997
2 43780  97.4717 164.4210 0000461  26.4007 333.7268 15.52421163347193
SPACEBEE-7              
1 43816U 18099BL  25092.69735766  .00047328  00000+0  15618-2 0  9992
2 43816  97.5016 161.8706 0005400   2.6948 357.4321 15.31253529346395
SHIELDS 1               
1 43850U 18104B   25092.70888112  .00048936  00000+0  70349-3 0  9992
2 43850  85.0132  84.1704 0010145  65.8527 294.3793 15.55826887350885
SONATE                  
1 44400U 19038Q   25092.57223848  .00138901  00000+0  11919-2 0  9994
2 44400  97.7028 111.6704 0010735 134.1618 226.0526 15.68877910318835
DUCHIFAT-3              
1 44854U 19089C   25092.63474559  .00066127  00000+0  16293-2 0  9997
2 44854  36.9468  65.1505 0004182 305.0081  55.0281 15.39488575292512
M2 PATHFINDER           
1 45727U 20037E   25092.45166341  .00008286  00000+0  64383-3 0  9995
2 45727  97.8121 274.6172 0012024 207.8049 152.2533 15.01518937259280
NETSAT-4                
1 46504U 20068U   25092.88892045  .00026216  00000+0  96402-3 0  9997
2 46504  97.8418  67.0318 0010614  82.8526 277.3918 15.27819138248204
NETSAT-3                
1 46505U 20068V   25092.88533268  .00023743  00000+0  90697-3 0  9999
2 46505  97.8416  66.1224 0010065  90.7775 269.4615 15.26586409248176
NETSAT-1                
1 46506U 20068W   25092.80322929  .00019290  00000+0  83578-3 0  9994
2 46506  97.8440  64.3296 0009243 101.1535 259.0740 15.22400607248041
NETSAT-2                
1 46507U 20068X   25092.86309460  .00025470  00000+0  94598-3 0  9997
2 46507  97.8416  66.5327 0008574 102.7671 257.4525 15.27514319248143
WILDTRACKCUBE-SIMBA     
1 47941U 21022K   25092.88105344  .00046126  00000+0  11323-2 0  9993
2 47941  97.4287 356.0919 0010397 182.2723 177.8477 15.40491279222753
GRBALPHA                
1 47959U 21022AD  25092.84584912  .00173178  00000+0  17167-2 0  9990
2 47959  97.4235   2.5050 0009078 148.3226 211.8581 15.65206840221994
LEDSAT                  
1 49069U 21073D   25092.78474661  .00077896  00000+0  13311-2 0  9999
2 49069  97.3936 171.9580 0010333 320.5118  39.5380 15.50967558200896
ROBUSTA-1F (MTCUBE 2)   
1 53109U 22080E   25092.42214995 -.00000003  00000+0  00000+0 0  9996
2 53109  70.1197  91.5282 0008538  22.2832 337.8198  6.42584496 63742
SITRO-AIS 5 (KATYS)     
1 57176U 23091L   25092.83728940  .00017442  00000+0  85734-3 0  9997
2 57176  97.5659 149.7285 0014699 199.8549 160.2114 15.18008101 97296
SITRO-AIS 6 (CHIRKIN)   
1 57192U 23091AC  25092.82093848  .00016561  00000+0  81597-3 0  9990
2 57192  97.5660 149.7329 0014603 199.3037 160.7646 15.17938184 97294
SITRO-AIS 8 (ANOKHIN)   
1 57193U 23091AD  25092.85319508  .00018686  00000+0  88887-3 0  9997
2 57193  97.5653 150.1351 0014160 199.2052 160.8651 15.19139811 97325
SITRO-AIS 7 (FARTUSHNIY)
1 57194U 23091AE  25092.83855162  .00016816  00000+0  83040-3 0  9996
2 57194  97.5657 149.6991 0014471 200.3366 159.7293 15.17857489 97291
SITRO-AIS 10 (BURDAEV)  
1 57199U 23091AK  25092.84514805  .00022470  00000+0  97929-3 0  9992
2 57199  97.5665 152.1063 0010429 182.4462 177.6724 15.22152716 97442
SITRO-AIS 9 (SHCHUKIN)  
1 57201U 23091AM  25092.85540032  .00021350  00000+0  93470-3 0  9991
2 57201  97.5660 152.0517 0010370 182.5923 177.5261 15.22010662 97440
SITRO-AIS 12 (SMIRENNIY)
1 57204U 23091AQ  25092.84651378  .00021974  00000+0  95610-3 0  9999
2 57204  97.5670 152.2949 0010386 176.9394 183.1907 15.22214120 97457
SITRO-AIS 11 (SHEFFER)  
1 57208U 23091AU  25092.87337384  .00020608  00000+0  89263-3 0  9994
2 57208  97.5667 152.3937 0010261 176.8430 183.2872 15.22382394 97469
VERONIKA                
1 58261U 23174F   25092.80054735  .00109137  00000+0  16987-2 0  9992
2 58261  97.4175 175.7834 0006712 271.9287  88.1197 15.53495683 78103
ROBUSTA-1E (ENSO)       
1 58470U 23185J   25092.87440714  .00064140  00000+0  12362-2 0  9996
2 58470  97.3791 166.2019 0006524 318.3743  41.7009 15.47618592 74531
SITRO-AIS 29            
1 59052U 24039B   25092.87483859  .00281752  00000+0  17373-2 0  9996
2 59052  97.4136  66.2115 0006489 173.3728 186.7624 15.76345859 61309
SITRO-AIS 30            
1 59053U 24039C   25092.78989138  .00277372  00000+0  19177-2 0  9995
2 59053  97.4143  65.8497 0006069 181.7947 178.3296 15.73705726 61263
SITRO-AIS 31            
1 59054U 24039D   25092.89012419  .00273051  00000+0  17537-2 0  9995
2 59054  97.4148  66.1955 0005851 177.9585 182.1705 15.75435958 61318
SITRO-AIS 33            
1 59055U 24039E   25092.85521164  .00279999  00000+0  17688-2 0  9998
2 59055  97.4143  66.2411 0006202 175.0802 185.0525 15.75796594 61301
SITRO-AIS 35            
1 59056U 24039F   25092.77173405  .00311385  00000+0  19174-2 0  9999
2 59056  97.4146  66.2075 0005814 173.2884 186.8460 15.76301757 61298
SITRO-AIS 32            
1 59057U 24039G   25092.66878614  .00272982  00000+0  18400-2 0  9992
2 59057  97.4161  65.8953 0005895 179.4346 180.6926 15.74314097 61261
SITRO-AIS 34            
1 59058U 24039H   25092.85732950  .00281665  00000+0  17804-2 0  9991
2 59058  97.4146  66.2442 0006063 174.3928 185.7406 15.75779045 61304
SITRO-AIS 36            
1 59059U 24039J   25092.58649059  .00265517  00000+0  17319-2 0  9998
2 59059  97.4134  65.9752 0005756 172.8572 187.2776 15.75099247 61269
SITRO-AIS 49            
1 59060U 24039K   25092.89812973  .00259072  00000+0  17588-2 0  9998
2 59060  97.4143  66.1830 0005914 176.9205 183.2097 15.74185205 61301
SITRO-AIS 50            
1 59061U 24039L   25092.68291009  .00318918  00000+0  18584-2 0  9999
2 59061  97.4124  66.3001 0006538 170.8973 189.2413 15.77534107 61299
SITRO-AIS 51            
1 59062U 24039M   25092.78736688  .00332674  00000+0  18852-2 0  9991
2 59062  97.4131  66.4674 0006476 169.8144 190.3255 15.78128974 61316
SITRO-AIS 52            
1 59063U 24039N   25092.88733819  .00326763  00000+0  18250-2 0  9990
2 59063  97.4136  66.6584 0006044 170.1316 190.0070 15.78474357 61334
SITRO-AIS 25            
1 59066U 24039R   25092.84344206  .00007882  00000+0  67288-3 0  9991
2 59066  95.3780 293.9478 0159429  62.6942 299.0412 14.88412163 59112
SITRO-AIS 26            
1 59067U 24039S   25092.86265599  .00006984  00000+0  59874-3 0  9995
2 59067  95.3781 293.9305 0159561  62.7786 298.9594 14.88266968 59116
SITRO-AIS 27            
1 59068U 24039T   25092.87224248  .00007798  00000+0  66396-3 0  9994
2 59068  95.3781 294.0373 0158781  62.2134 299.5083 14.88582321 59124
SITRO-AIS 28            
1 59071U 24039U   25092.86115842  .00007383  00000+0  62824-3 0  9998
2 59071  95.3784 294.0523 0158696  62.1828 299.5376 14.88622264 59128
GRBBETA                 
1 60237U 24128C   25092.84389255  .00007460  00000+0  57202-3 0  9992
2 60237  61.9932 315.6015 0045526  42.9796 317.4836 15.01802984 40026
OOV-CUBE (TUBSAT-30)    
1 60240U 24128F   25092.80234129  .00004938  00000+0  40605-3 0  9997
2 60240  61.9974 317.6938 0044670  39.2075 321.2235 14.99718308 39992
ROBUSTA-3A (MEDITERRAN*)
1 60243U 24128J   25092.76460496  .00013256  00000+0  96500-3 0  9991
2 60243  61.9901 315.6830 0043636  36.2168 324.1863 15.03330231 40021
LASARSAT                
1 62391U 24247Q   25092.50541222  .00027940  00000+0  11688-2 0  9996
2 62391  44.9907 170.0440 0006661 345.4598  14.6090 15.23139457 15678
CROCUBE                 
1 62394U 24247T   25092.50611185  .00029181  00000+0  12166-2 0  9996
2 62394  44.9908 170.0444 0007317 346.5830  13.4856 15.23228954 15674
